ONEWEB-0120             
1 47266U 20100J   25346.14298920  .00000036  00000+0  65694-4 0  9995
2 47266  87.8938  27.8398 0001678  97.0010 263.1309 13.12446861240192
ONEWEB-0121             
1 47267U 20100K   25346.13147252  .00001641  00000+0  45249-2 0  9991
2 47267  87.8943  27.8102 0001925  94.0935 266.0414 13.12459209240100
ONEWEB-0122             
1 47268U 20100L   25346.12645266  .00004438  00000+0  12291-1 0  9996
2 47268  87.8980  27.8165 0001624  85.4198 274.7116 13.12467961240011
ONEWEB-0123             
1 47269U 20100M   25346.12170256  .00006368  00000+0  17641-1 0  9997
2 47269  87.8935  27.8412 0002181 106.3462 253.7906 13.12497511240156
ONEWEB-0124             
1 47270U 20100N   25346.11044104 -.00001364  00000+0 -38287-2 0  9993
2 47270  87.8935  27.8477 0001861  99.2871 260.8468 13.12428626240037
ONEWEB-0125             
1 47271U 20100P   25346.16401363 -.00006828  00000+0 -19044-1 0  9992
2 47271  87.8910  27.7976 0002349 100.5479 259.5914 13.12392938240101
ONEWEB-0126             
1 47272U 20100Q   25346.10895197 -.00000626  00000+0 -17757-2 0  9999
2 47272  87.8950  27.8345 0001624  96.5089 263.6224 13.12435173240168
ONEWEB-0127             
1 47273U 20100R   25346.15099492 -.00002621  00000+0 -73255-2 0  9991
2 47273  87.8941  27.8364 0001578  95.2736 264.8572 13.12422962240197
ONEWEB-0128             
1 47274U 20100S   25346.09741491  .00001916  00000+0  52891-2 0  9995
2 47274  87.8930  27.8636 0001870  89.3797 270.7546 13.12460402240204
ONEWEB-0129             
1 47275U 20100T   25346.15260407 -.00003826  00000+0 -10676-1 0  9994
2 47275  87.8900  27.8048 0000948  67.7982 292.3247 13.12428816240144
ONEWEB-0130             
1 47276U 20100U   25346.18016375  .00000667  00000+0  18197-2 0  9996
2 47276  87.8945  27.7963 0001719  93.3643 266.7682 13.12448797240110
ONEWEB-0131             
1 47277U 20100V   25346.17690380  .00001939  00000+0  53528-2 0  9990
2 47277  87.8943  27.8267 0001834  96.5353 263.5984 13.12459616240154
ONEWEB-0132             
1 47278U 20100W   25346.12985022  .00002108  00000+0  58227-2 0  9996
2 47278  87.8946  27.8384 0001741  96.0448 264.0879 13.12461727240048
ONEWEB-0133             
1 47279U 20100X   25346.14597032 -.00001124  00000+0 -31614-2 0  9999
2 47279  87.8945  27.7968 0001894  95.1189 265.0156 13.12434581240201
ONEWEB-0134             
1 47280U 20100Y   25346.11531694 -.00002559  00000+0 -71528-2 0  9991
2 47280  87.8943  27.7979 0002063  93.1790 266.9574 13.12419559240176
ONEWEB-0135             
1 47281U 20100Z   25346.16238936 -.00005597  00000+0 -15612-1 0  9996
2 47281  87.8905  27.8270 0002548  83.0494 277.0924 13.12399198240209
ONEWEB-0136             
1 47282U 20100AA  25346.18179132  .00000384  00000+0  10322-2 0  9992
2 47282  87.8945  27.7937 0001763  83.8513 276.2817 13.12445030240132
