[{"OBJECT_NAME":"ONEWEB-0120","OBJECT_ID":"2020-100J","EPOCH":"2025-12-12T03:25:54.266880","MEAN_MOTION":13.12446861,"ECCENTRICITY":0.00016788,"INCLINATION":87.8938,"RA_OF_ASC_NODE":27.8398,"ARG_OF_PERICENTER":97.001,"MEAN_ANOMALY":263.1309,"EPHEMERIS_TYPE":0,"CLASSIFICATION_TYPE":"U","NORAD_CAT_ID":47266,"ELEMENT_SET_NO":999,"REV_AT_EPOCH":24019,"BSTAR":6.5694229e-5,"MEAN_MOTION_DOT":3.6e-7,"MEAN_MOTION_DDOT":0},{"OBJECT_NAME":"ONEWEB-0121","OBJECT_ID":"2020-100K","EPOCH":"2025-12-12T03:09:19.225728","MEAN_MOTION":13.12459209,"ECCENTRICITY":0.0001925,"INCLINATION":87.8943,"RA_OF_ASC_NODE":27.8102,"ARG_OF_PERICENTER":94.0935,"MEAN_ANOMALY":266.0414,"EPHEMERIS_TYPE":0,"CLASSIFICATION_TYPE":"U","NORAD_CAT_ID":47267,"ELEMENT_SET_NO":999,"REV_AT_EPOCH":24010,"BSTAR":0.0045248671,"MEAN_MOTION_DOT":1.641e-5,"MEAN_MOTION_DDOT":0},{"OBJECT_NAME":"ONEWEB-0122","OBJECT_ID":"2020-100L","EPOCH":"2025-12-12T03:02:05.509824","MEAN_MOTION":13.12467961,"ECCENTRICITY":0.00016243,"INCLINATION":87.898,"RA_OF_ASC_NODE":27.8165,"ARG_OF_PERICENTER":85.4198,"MEAN_ANOMALY":274.7116,"EPHEMERIS_TYPE":0,"CLASSIFICATION_TYPE":"U","NORAD_CAT_ID":47268,"ELEMENT_SET_NO":999,"REV_AT_EPOCH":24001,"BSTAR":0.012291178,"MEAN_MOTION_DOT":4.438e-5,"MEAN_MOTION_DDOT":0},{"OBJECT_NAME":"ONEWEB-0123","OBJECT_ID":"2020-100M","EPOCH":"2025-12-12T02:55:15.101184","MEAN_MOTION":13.12497511,"ECCENTRICITY":0.00021811,"INCLINATION":87.8935,"RA_OF_ASC_NODE":27.8412,"ARG_OF_PERICENTER":106.3462,"MEAN_ANOMALY":253.7906,"EPHEMERIS_TYPE":0,"CLASSIFICATION_TYPE":"U","NORAD_CAT_ID":47269,"ELEMENT_SET_NO":999,"REV_AT_EPOCH":24015,"BSTAR":0.01764058,"MEAN_MOTION_DOT":6.368e-5,"MEAN_MOTION_DDOT":0},{"OBJECT_NAME":"ONEWEB-0124","OBJECT_ID":"2020-100N","EPOCH":"2025-12-12T02:39:02.105856","MEAN_MOTION":13.12428626,"ECCENTRICITY":0.00018619,"INCLINATION":87.8935,"RA_OF_ASC_NODE":27.8477,"ARG_OF_PERICENTER":99.2871,"MEAN_ANOMALY":260.8468,"EPHEMERIS_TYPE":0,"CLASSIFICATION_TYPE":"U","NORAD_CAT_ID":47270,"ELEMENT_SET_NO":999,"REV_AT_EPOCH":24003,"BSTAR":-0.0038286528,"MEAN_MOTION_DOT":-1.364e-5,"MEAN_MOTION_DDOT":0},{"OBJECT_NAME":"ONEWEB-0125","OBJECT_ID":"2020-100P","EPOCH":"2025-12-12T03:56:10.777632","MEAN_MOTION":13.12392938,"ECCENTRICITY":0.0002349,"INCLINATION":87.891,"RA_OF_ASC_NODE":27.7976,"ARG_OF_PERICENTER":100.5479,"MEAN_ANOMALY":259.5914,"EPHEMERIS_TYPE":0,"CLASSIFICATION_TYPE":"U","NORAD_CAT_ID":47271,"ELEMENT_SET_NO":999,"REV_AT_EPOCH":24010,"BSTAR":-0.019043526,"MEAN_MOTION_DOT":-6.828e-5,"MEAN_MOTION_DDOT":0},{"OBJECT_NAME":"ONEWEB-0126","OBJECT_ID":"2020-100Q","EPOCH":"2025-12-12T02:36:53.450208","MEAN_MOTION":13.12435173,"ECCENTRICITY":0.00016248,"INCLINATION":87.895,"RA_OF_ASC_NODE":27.8345,"ARG_OF_PERICENTER":96.5089,"MEAN_ANOMALY":263.6224,"EPHEMERIS_TYPE":0,"CLASSIFICATION_TYPE":"U","NORAD_CAT_ID":47272,"ELEMENT_SET_NO":999,"REV_AT_EPOCH":24016,"BSTAR":-0.0017756944,"MEAN_MOTION_DOT":-6.26e-6,"MEAN_MOTION_DDOT":0},{"OBJECT_NAME":"ONEWEB-0127","OBJECT_ID":"2020-100R","EPOCH":"2025-12-12T03:37:25.961088","MEAN_MOTION":13.12422962,"ECCENTRICITY":0.00015787,"INCLINATION":87.8941,"RA_OF_ASC_NODE":27.8364,"ARG_OF_PERICENTER":95.2736,"MEAN_ANOMALY":264.8572,"EPHEMERIS_TYPE":0,"CLASSIFICATION_TYPE":"U","NORAD_CAT_ID":47273,"ELEMENT_SET_NO":999,"REV_AT_EPOCH":24019,"BSTAR":-0.0073254685,"MEAN_MOTION_DOT":-2.621e-5,"MEAN_MOTION_DDOT":0},{"OBJECT_NAME":"ONEWEB-0128","OBJECT_ID":"2020-100S","EPOCH":"2025-12-12T02:20:16.648224","MEAN_MOTION":13.12460402,"ECCENTRICITY":0.00018705,"INCLINATION":87.893,"RA_OF_ASC_NODE":27.8636,"ARG_OF_PERICENTER":89.3797,"MEAN_ANOMALY":270.7546,"EPHEMERIS_TYPE":0,"CLASSIFICATION_TYPE":"U","NORAD_CAT_ID":47274,"ELEMENT_SET_NO":999,"REV_AT_EPOCH":24020,"BSTAR":0.0052890741,"MEAN_MOTION_DOT":1.916e-5,"MEAN_MOTION_DDOT":0},{"OBJECT_NAME":"ONEWEB-0129","OBJECT_ID":"2020-100T","EPOCH":"2025-12-12T03:39:44.991648","MEAN_MOTION":13.12428816,"ECCENTRICITY":9.488e-5,"INCLINATION":87.89,"RA_OF_ASC_NODE":27.8048,"ARG_OF_PERICENTER":67.7982,"MEAN_ANOMALY":292.3247,"EPHEMERIS_TYPE":0,"CLASSIFICATION_TYPE":"U","NORAD_CAT_ID":47275,"ELEMENT_SET_NO":999,"REV_AT_EPOCH":24014,"BSTAR":-0.010676132,"MEAN_MOTION_DOT":-3.826e-5,"MEAN_MOTION_DDOT":0},{"OBJECT_NAME":"ONEWEB-0130","OBJECT_ID":"2020-100U","EPOCH":"2025-12-12T04:19:26.148000","MEAN_MOTION":13.12448797,"ECCENTRICITY":0.00017192,"INCLINATION":87.8945,"RA_OF_ASC_NODE":27.7963,"ARG_OF_PERICENTER":93.3643,"MEAN_ANOMALY":266.7682,"EPHEMERIS_TYPE":0,"CLASSIFICATION_TYPE":"U","NORAD_CAT_ID":47276,"ELEMENT_SET_NO":999,"REV_AT_EPOCH":24011,"BSTAR":0.0018196591,"MEAN_MOTION_DOT":6.67e-6,"MEAN_MOTION_DDOT":0},{"OBJECT_NAME":"ONEWEB-0131","OBJECT_ID":"2020-100V","EPOCH":"2025-12-12T04:14:44.488320","MEAN_MOTION":13.12459616,"ECCENTRICITY":0.00018341,"INCLINATION":87.8943,"RA_OF_ASC_NODE":27.8267,"ARG_OF_PERICENTER":96.5353,"MEAN_ANOMALY":263.5984,"EPHEMERIS_TYPE":0,"CLASSIFICATION_TYPE":"U","NORAD_CAT_ID":47277,"ELEMENT_SET_NO":999,"REV_AT_EPOCH":24015,"BSTAR":0.0053528286,"MEAN_MOTION_DOT":1.939e-5,"MEAN_MOTION_DDOT":0},{"OBJECT_NAME":"ONEWEB-0132","OBJECT_ID":"2020-100W","EPOCH":"2025-12-12T03:06:59.059008","MEAN_MOTION":13.12461727,"ECCENTRICITY":0.00017412,"INCLINATION":87.8946,"RA_OF_ASC_NODE":27.8384,"ARG_OF_PERICENTER":96.0448,"MEAN_ANOMALY":264.0879,"EPHEMERIS_TYPE":0,"CLASSIFICATION_TYPE":"U","NORAD_CAT_ID":47278,"ELEMENT_SET_NO":999,"REV_AT_EPOCH":24004,"BSTAR":0.0058226611,"MEAN_MOTION_DOT":2.108e-5,"MEAN_MOTION_DDOT":0},{"OBJECT_NAME":"ONEWEB-0133","OBJECT_ID":"2020-100X","EPOCH":"2025-12-12T03:30:11.835648","MEAN_MOTION":13.12434581,"ECCENTRICITY":0.00018941,"INCLINATION":87.8945,"RA_OF_ASC_NODE":27.7968,"ARG_OF_PERICENTER":95.1189,"MEAN_ANOMALY":265.0156,"EPHEMERIS_TYPE":0,"CLASSIFICATION_TYPE":"U","NORAD_CAT_ID":47279,"ELEMENT_SET_NO":999,"REV_AT_EPOCH":24020,"BSTAR":-0.0031614244,"MEAN_MOTION_DOT":-1.124e-5,"MEAN_MOTION_DDOT":0},{"OBJECT_NAME":"ONEWEB-0134","OBJECT_ID":"2020-100Y","EPOCH":"2025-12-12T02:46:03.383616","MEAN_MOTION":13.12419559,"ECCENTRICITY":0.00020635,"INCLINATION":87.8943,"RA_OF_ASC_NODE":27.7979,"ARG_OF_PERICENTER":93.179,"MEAN_ANOMALY":266.9574,"EPHEMERIS_TYPE":0,"CLASSIFICATION_TYPE":"U","NORAD_CAT_ID":47280,"ELEMENT_SET_NO":999,"REV_AT_EPOCH":24017,"BSTAR":-0.0071527636,"MEAN_MOTION_DOT":-2.559e-5,"MEAN_MOTION_DDOT":0},{"OBJECT_NAME":"ONEWEB-0135","OBJECT_ID":"2020-100Z","EPOCH":"2025-12-12T03:53:50.440704","MEAN_MOTION":13.12399198,"ECCENTRICITY":0.00025487,"INCLINATION":87.8905,"RA_OF_ASC_NODE":27.827,"ARG_OF_PERICENTER":83.0494,"MEAN_ANOMALY":277.0924,"EPHEMERIS_TYPE":0,"CLASSIFICATION_TYPE":"U","NORAD_CAT_ID":47281,"ELEMENT_SET_NO":999,"REV_AT_EPOCH":24020,"BSTAR":-0.015612086,"MEAN_MOTION_DOT":-5.597e-5,"MEAN_MOTION_DDOT":0},{"OBJECT_NAME":"ONEWEB-0136","OBJECT_ID":"2020-100AA","EPOCH":"2025-12-12T04:21:46.770048","MEAN_MOTION":13.1244503,"ECCENTRICITY":0.00017638,"INCLINATION":87.8945,"RA_OF_ASC_NODE":27.7937,"ARG_OF_PERICENTER":83.8513,"MEAN_ANOMALY":276.2817,"EPHEMERIS_TYPE":0,"CLASSIFICATION_TYPE":"U","NORAD_CAT_ID":47282,"ELEMENT_SET_NO":999,"REV_AT_EPOCH":24013,"BSTAR":0.0010321784,"MEAN_MOTION_DOT":3.84e-6,"MEAN_MOTION_DDOT":0}]
